stk.v.11.0

BEGIN Ephemeris

NumberOfEphemerisPoints	30

ScenarioEpoch	03 May 2017 21:30:00

InterpolationMethod            Lagrange

InterpolationOrder            7

CentralBody            Earth

CoordinateSystem            Fixed


EphemerisTimePosVel

+6.30000000000000e+02 +7.05291991773512e+06 -2.45742580205455e+07 -6.12947752354175e+06 +1.91127546601126e+02 +8.25880649662549e+02 -3.04574236792154e+03
+6.35000000000000e+02 +7.05397754465489e+06 -2.45700550106057e+07 -6.14486112597007e+06 +1.91153302818952e+02 +8.27745256301222e+02 -3.04506994802037e+03
+6.40000000000000e+02 +7.05503530950135e+06 -2.45658425649136e+07 -6.16024135877770e+06 +1.91180348697585e+02 +8.29609512720629e+02 -3.04439587393838e+03
+6.45000000000000e+02 +7.05609321869151e+06 -2.45616206852402e+07 -6.17561821350999e+06 +1.91208683973903e+02 +8.31473417199791e+02 -3.04372014603515e+03
+6.50000000000000e+02 +7.05715127864117e+06 -2.45573893733653e+07 -6.19099168171423e+06 +1.91238308382989e+02 +8.33336968018085e+02 -3.04304276467120e+03
+6.55000000000000e+02 +7.05820949576484e+06 -2.45531486310774e+07 -6.20636175493964e+06 +1.91269221658138e+02 +8.35200163455235e+02 -3.04236373020798e+03
+6.60000000000000e+02 +7.05926787647551e+06 -2.45488984601742e+07 -6.22172842473694e+06 +1.91301423530858e+02 +8.37063001791260e+02 -3.04168304300789e+03
+6.65000000000000e+02 +7.06032642718514e+06 -2.45446388624620e+07 -6.23709168265898e+06 +1.91334913730863e+02 +8.38925481306558e+02 -3.04100070343426e+03
+6.70000000000000e+02 +7.06138515430428e+06 -2.45403698397558e+07 -6.25245152026037e+06 +1.91369691986079e+02 +8.40787600281856e+02 -3.04031671185137e+03
+6.75000000000000e+02 +7.06244406424195e+06 -2.45360913938798e+07 -6.26780792909750e+06 +1.91405758022648e+02 +8.42649356998220e+02 -3.03963106862442e+03
+6.80000000000000e+02 +7.06350316340619e+06 -2.45318035266667e+07 -6.28316090072867e+06 +1.91443111564914e+02 +8.44510749737068e+02 -3.03894377411956e+03
+6.85000000000000e+02 +7.06456245820312e+06 -2.45275062399583e+07 -6.29851042671361e+06 +1.91481752335448e+02 +8.46371776780113e+02 -3.03825482870388e+03
+6.90000000000000e+02 +7.06562195503817e+06 -2.45231995356051e+07 -6.31385649861484e+06 +1.91521680055017e+02 +8.48232436409535e+02 -3.03756423274539e+03
+6.95000000000000e+02 +7.06668166031471e+06 -2.45188834154665e+07 -6.32919910799559e+06 +1.91562894442617e+02 +8.50092726907719e+02 -3.03687198661306e+03
+7.00000000000000e+02 +7.06774158043528e+06 -2.45145578814107e+07 -6.34453824642176e+06 +1.91605395215442e+02 +8.51952646557510e+02 -3.03617809067679e+03
+7.05000000000000e+02 +7.06880172180058e+06 -2.45102229353148e+07 -6.35987390546068e+06 +1.91649182088913e+02 +8.53812193642047e+02 -3.03548254530741e+03
+7.10000000000000e+02 +7.06986209081034e+06 -2.45058785790645e+07 -6.37520607668199e+06 +1.91694254776654e+02 +8.55671366444886e+02 -3.03478535087668e+03
+7.15000000000000e+02 +7.07092269386259e+06 -2.45015248145546e+07 -6.39053475165674e+06 +1.91740612990507e+02 +8.57530163249884e+02 -3.03408650775731e+03
+7.20000000000000e+02 +7.07198353735390e+06 -2.44971616436886e+07 -6.40585992195805e+06 +1.91788256440536e+02 +8.59388582341278e+02 -3.03338601632295e+03
+7.25000000000000e+02 +7.07304462767960e+06 -2.44927890683789e+07 -6.42118157916098e+06 +1.91837184835008e+02 +8.61246622003682e+02 -3.03268387694817e+03
+7.30000000000000e+02 +7.07410597123350e+06 -2.44884070905465e+07 -6.43649971484241e+06 +1.91887397880413e+02 +8.63104280522060e+02 -3.03198009000849e+03
+7.35000000000000e+02 +7.07516757440793e+06 -2.44840157121216e+07 -6.45181432058120e+06 +1.91938895281454e+02 +8.64961556181761e+02 -3.03127465588035e+03
+7.40000000000000e+02 +7.07622944359358e+06 -2.44796149350429e+07 -6.46712538795770e+06 +1.91991676741057e+02 +8.66818447268446e+02 -3.03056757494115e+03
+7.45000000000000e+02 +7.07729158518027e+06 -2.44752047612579e+07 -6.48243290855500e+06 +1.92045741960348e+02 +8.68674952068257e+02 -3.02985884756920e+03
+7.50000000000000e+02 +7.07835400555553e+06 -2.44707851927234e+07 -6.49773687395715e+06 +1.92101090638692e+02 +8.70531068867586e+02 -3.02914847414376e+03
+7.55000000000000e+02 +7.07941671110588e+06 -2.44663562314044e+07 -6.51303727575056e+06 +1.92157722473658e+02 +8.72386795953261e+02 -3.02843645504504e+03
+7.60000000000000e+02 +7.08047970821655e+06 -2.44619178792750e+07 -6.52833410552394e+06 +1.92215637161026e+02 +8.74242131612532e+02 -3.02772279065413e+03
+7.65000000000000e+02 +7.08154300327070e+06 -2.44574701383180e+07 -6.54362735486724e+06 +1.92274834394813e+02 +8.76097074132943e+02 -3.02700748135310e+03
+7.70000000000000e+02 +7.08260660265035e+06 -2.44530130105253e+07 -6.55891701537268e+06 +1.92335313867241e+02 +8.77951621802466e+02 -3.02629052752495e+03
+7.75000000000000e+02 +7.08367051273594e+06 -2.44485464978972e+07 -6.57420307863435e+06 +1.92397075268753e+02 +8.79805772909445e+02 -3.02557192955361e+03
+7.80000000000000e+02 +7.08473473990629e+06 -2.44440706024431e+07 -6.58948553624836e+06 +1.92460118288015e+02 +8.81659525742621e+02 -3.02485168782394e+03
+7.85000000000000e+02 +7.08579929053880e+06 -2.44395853261811e+07 -6.60476437981272e+06 +1.92524442611911e+02 +8.83512878591118e+02 -3.02412980272172e+03
+7.90000000000000e+02 +7.08686417100918e+06 -2.44350906711381e+07 -6.62003960092721e+06 +1.92590047925542e+02 +8.85365829744428e+02 -3.02340627463371e+03
+7.95000000000000e+02 +7.08792938769173e+06 -2.44305866393496e+07 -6.63531119119395e+06 +1.92656933912235e+02 +8.87218377492482e+02 -3.02268110394753e+03
+8.00000000000000e+02 +7.08899494695903e+06 -2.44260732328604e+07 -6.65057914221661e+06 +1.92725100253534e+02 +8.89070520125555e+02 -3.02195429105181e+03
+8.05000000000000e+02 +7.09006085518221e+06 -2.44215504537237e+07 -6.66584344560104e+06 +1.92794546629206e+02 +8.90922255934344e+02 -3.02122583633606e+03
+8.10000000000000e+02 +7.09112711873073e+06 -2.44170183040014e+07 -6.68110409295504e+06 +1.92865272717237e+02 +8.92773583209944e+02 -3.02049574019073e+03
+8.15000000000000e+02 +7.09219374397247e+06 -2.44124767857645e+07 -6.69636107588841e+06 +1.92937278193841e+02 +8.94624500243849e+02 -3.01976400300723e+03
+8.20000000000000e+02 +7.09326073727372e+06 -2.44079259010928e+07 -6.71161438601281e+06 +1.93010562733450e+02 +8.96475005327946e+02 -3.01903062517789e+03
+8.25000000000000e+02 +7.09432810499915e+06 -2.44033656520746e+07 -6.72686401494196e+06 +1.93085126008722e+02 +8.98325096754533e+02 -3.01829560709594e+03
+8.30000000000000e+02 +7.09539585351202e+06 -2.43987960408070e+07 -6.74210995429190e+06 +1.93160967690528e+02 +9.00174772816354e+02 -3.01755894915558e+03
+8.35000000000000e+02 +7.09646398917340e+06 -2.43942170693963e+07 -6.75735219567973e+06 +1.93238087447982e+02 +9.02024031806449e+02 -3.01682065175193e+03
+8.40000000000000e+02 +7.09753251834338e+06 -2.43896287399570e+07 -6.77259073072568e+06 +1.93316484948403e+02 +9.03872872018407e+02 -3.01608071528103e+03
+8.45000000000000e+02 +7.09860144737988e+06 -2.43850310546129e+07 -6.78782555105121e+06 +1.93396159857351e+02 +9.05721291746133e+02 -3.01533914013988e+03
+8.50000000000000e+02 +7.09967078263945e+06 -2.43804240154963e+07 -6.80305664828008e+06 +1.93477111838600e+02 +9.07569289283983e+02 -3.01459592672638e+03
+8.55000000000000e+02 +7.10074053047688e+06 -2.43758076247483e+07 -6.81828401403796e+06 +1.93559340554153e+02 +9.09416862926719e+02 -3.01385107543938e+03
+8.60000000000000e+02 +7.10181069724529e+06 -2.43711818845188e+07 -6.83350763995278e+06 +1.93642845664240e+02 +9.11264010969547e+02 -3.01310458667863e+03
+8.65000000000000e+02 +7.10288128929634e+06 -2.43665467969663e+07 -6.84872751765438e+06 +1.93727626827311e+02 +9.13110731708085e+02 -3.01235646084485e+03
+8.70000000000000e+02 +7.10395231297943e+06 -2.43619023642585e+07 -6.86394363877419e+06 +1.93813683700058e+02 +9.14957023438315e+02 -3.01160669833967e+03
+8.75000000000000e+02 +7.10502377464278e+06 -2.43572485885715e+07 -6.87915599494638e+06 +1.93901015937385e+02 +9.16802884456733e+02 -3.01085529956566e+03
+8.80000000000000e+02 +7.10609568063267e+06 -2.43525854720902e+07 -6.89436457780668e+06 +1.93989623192432e+02 +9.18648313060203e+02 -3.01010226492629e+03
+8.85000000000000e+02 +7.10716803729376e+06 -2.43479130170083e+07 -6.90956937899304e+06 +1.94079505116562e+02 +9.20493307546042e+02 -3.00934759482600e+03
+8.90000000000000e+02 +7.10824085096891e+06 -2.43432312255283e+07 -6.92477039014554e+06 +1.94170661359371e+02 +9.22337866212002e+02 -3.00859128967014e+03
+8.95000000000000e+02 +7.10931412799926e+06 -2.43385400998615e+07 -6.93996760290615e+06 +1.94263091568685e+02 +9.24181987356253e+02 -3.00783334986497e+03
+9.00000000000000e+02 +7.11038787472412e+06 -2.43338396422280e+07 -6.95516100891880e+06 +1.94356795390554e+02 +9.26025669277386e+02 -3.00707377581773e+03
+9.05000000000000e+02 +7.11146209748134e+06 -2.43291298548562e+07 -6.97035059983008e+06 +1.94451772469260e+02 +9.27868910274502e+02 -3.00631256793651e+03
+9.10000000000000e+02 +7.11253680260655e+06 -2.43244107399839e+07 -6.98553636728781e+06 +1.94548022447321e+02 +9.29711708647040e+02 -3.00554972663040e+03
+9.15000000000000e+02 +7.11361199643399e+06 -2.43196822998572e+07 -7.00071830294244e+06 +1.94645544965479e+02 +9.31554062694949e+02 -3.00478525230940e+03
+9.20000000000000e+02 +7.11468768529588e+06 -2.43149445367311e+07 -7.01589639844640e+06 +1.94744339662710e+02 +9.33395970718604e+02 -3.00401914538442e+03
+9.25000000000000e+02 +7.11576387552272e+06 -2.43101974528695e+07 -7.03107064545404e+06 +1.94844406176226e+02 +9.35237431018811e+02 -3.00325140626730e+03
+9.30000000000000e+02 +7.11684057344338e+06 -2.43054410505445e+07 -7.04624103562211e+06 +1.94945744141460e+02 +9.37078441896860e+02 -3.00248203537082e+03
+9.35000000000000e+02 +7.11791778538457e+06 -2.43006753320377e+07 -7.06140756060912e+06 +1.95048353192091e+02 +9.38919001654446e+02 -3.00171103310867e+03
+9.40000000000000e+02 +7.11899551767143e+06 -2.42959002996388e+07 -7.07657021207585e+06 +1.95152232960026e+02 +9.40759108593743e+02 -3.00093839989549e+03
